SCS-01 A                
1 63982U 25100A   25163.88237886  .00004491  00000+0  22068-3 0  9991
2 63982  97.4056 239.0476 0009450 211.4585 148.6085 15.18517444  4529
SCS-01 B                
1 63983U 25100B   25163.94147659  .00016285  00000+0  75613-3 0  9995
2 63983  97.4053 239.1197 0014478 156.9927 203.1960 15.20000216  4512
SCS-01 C                
1 63984U 25100C   25163.88307299  .00009363  00000+0  45620-3 0  9991
2 63984  97.4054 239.0436 0009610 210.5094 149.5583 15.18517491  4501
SCS-01 D                
1 63985U 25100D   25163.88211186  .00017293  00000+0  81320-3 0  9999
2 63985  97.4061 239.0501 0013657 150.6748 209.5257 15.19557079  4501
SCS-01 E                
1 63986U 25100E   25163.88411473  .00014717  00000+0  71403-3 0  9990
2 63986  97.4026 239.0336 0015104 156.7428 203.4493 15.18489878  4505
SCS-01 F                
1 63987U 25100F   25163.92626581  .00017117  00000+0  74383-3 0  9991
2 63987  97.4028 239.1304 0014310 159.3580 200.8238 15.22262495  4518
SCS-01 G                
1 63988U 25100G   25163.93070343  .00016212  00000+0  71373-3 0  9993
2 63988  97.4069 239.1408 0014964 158.8184 201.3675 15.21822376  4518
SCS-01 H                
1 63989U 25100H   25163.93869342  .00016863  00000+0  76211-3 0  9997
2 63989  97.4082 239.1348 0015123 160.8782 199.3024 15.20913520  4517
SCS-01 J                
1 63990U 25100J   25163.88267921  .00017000  00000+0  79934-3 0  9997
2 63990  97.4026 239.0362 0013342 155.6805 204.5062 15.19569171  4485
SCS-01 K                
1 63991U 25100K   25163.94209457  .00016123  00000+0  74806-3 0  9993
2 63991  97.4031 239.1105 0014901 168.2162 191.9425 15.20022047  4509
SCS-01 L                
1 63992U 25100L   25163.94299645  .00016275  00000+0  75559-3 0  9996
2 63992  97.4059 239.1203 0014423 157.1404 203.0476 15.20003427  4494
SCS-01 M                
1 63993U 25100M   25163.88235062  .00017034  00000+0  80027-3 0  9993
2 63993  97.4060 239.0491 0014708 166.4095 193.7539 15.19580940  4493
STARLINK-33871          
1 63994U 25101A   25163.91667824  .00009107  00000+0  22518-3 0  9997
2 63994  43.0010  83.1412 0001302 273.5497 243.3671 15.40678888  5807
STARLINK-34154          
1 63995U 25101B   25163.91667824  .00021001  00000+0  50916-3 0  9998
2 63995  43.0010  83.1112 0001429 261.9621 267.3935 15.40667878  5801
STARLINK-34158          
1 63996U 25101C   25163.91667824  .00010076  00000+0  24843-3 0  9999
2 63996  43.0007  84.5033 0001878 246.4163  81.1399 15.40667060  5801
STARLINK-34165          
1 63997U 25101D   25163.91667824  .00007540  00000+0  18765-3 0  9998
2 63997  43.0009  83.0200 0001308 269.7188 296.9368 15.40688003  5809
STARLINK-34150          
1 63998U 25101E   25163.91667824  .00012821  00000+0  31393-3 0  9999
2 63998  43.0011  83.0807 0001382 273.2440 268.5586 15.40674382  5812
STARLINK-34169          
1 63999U 25101F   25163.91667824  .00014727  00000+0  35945-3 0  9994
2 63999  43.0011  83.0512 0001837 274.2647 279.9641 15.40673320  5720
STARLINK-34152          
1 64000U 25101G   25163.91667824  .00004469  00000+0  11410-3 0  9991
2 64000  43.0005  82.8989 0001101 263.6130 352.7067 15.40724437  4575
STARLINK-33927          
1 64001U 25101H   25163.91667824  .00008830  00000+0  21850-3 0  9997
2 64001  43.0008  82.9896 0001367 266.0091 313.0886 15.40685846  4573
STARLINK-33898          
1 64002U 25101J   25163.91667824  .00016943  00000+0  41245-3 0  9992
2 64002  43.0005  82.9293 0001495 263.7364 340.2820 15.40663946  4523
STARLINK-33928          
1 64003U 25101K   25163.91667824  .00018037  00000+0  43822-3 0  9992
2 64003  43.0007  82.9594 0001384 256.2329 335.2845 15.40687024  4484
STARLINK-33758          
1 64004U 25101L   25163.91667824  .00013611  00000+0  33271-3 0  9993
2 64004  43.0005  82.8376 0001265 271.0927  10.2062 15.40682969  4481
STARLINK-33936          
1 64005U 25101M   25163.91667824  .00011661  00000+0  28607-3 0  9994
2 64005  43.0005  82.8680 0001597 267.9961   0.8433 15.40691675  4403
STARLINK-33931          
1 64006U 25101N   25163.91667824  .00006014  00000+0  15117-3 0  9993
2 64006  43.0006  82.8078 0001800 249.7061  44.0245 15.40689857  4356
STARLINK-33759          
1 64007U 25101P   25163.91667824  .00007306  00000+0  18207-3 0  9992
2 64007  43.0005  82.7770 0001385 268.7621  37.4195 15.40685299  4351
STARLINK-34163          
1 64008U 25101Q   25163.91667824  .00020532  00000+0  49796-3 0  9996
2 64008  43.0004  82.7473 0001485 286.6653  31.9613 15.40669027  4294
STARLINK-34077          
1 64009U 25101R   25163.91667824 -.00747337  00000+0 -19109-1 0  9991
2 64009  43.0009  82.7177 0001063 260.7274  70.1019 15.41185755  4405
STARLINK-34113          
1 64010U 25101S   25163.91667824 -.01840561  00000+0 -45828-1 0  9994
2 64010  43.0011  82.6920 0001389 286.9325  54.7896 15.42686142  4579
STARLINK-34193          
1 64011U 25101T   25163.91667824 -.01540190  00000+0 -37141-1 0  9999
2 64011  43.0008  82.6684 0001240 265.0115  86.6555 15.43577574  4579
STARLINK-34078          
1 64012U 25101U   25163.78732134 -.00293243  00000+0 -61963-2 0  9995
2 64012  43.0010  83.3937 0001603 276.1410  83.9265 15.45481626  5669
STARLINK-34182          
1 64013U 25101V   25163.78600387  .00065135  00000+0  12871-2 0  9999
2 64013  43.0004  83.3835 0002035 286.4795  73.5840 15.46264833  5664
STARLINK-34192          
1 64014U 25101W   25163.91667824 -.01644229  00000+0 -35789-1 0  9996
2 64014  43.0011  82.6110 0001476 266.6395 108.0759 15.46752730  4496
STARLINK-34093          
1 64015U 25101X   25163.91667824 -.01655781  00000+0 -34765-1 0  9995
2 64015  43.0007  82.5975 0001452 261.8517 118.3191 15.47803294  4528
STARLINK-34016          
1 64016U 25101Y   25163.66668981 -.01573498  00000+0 -30732-1 0  9997
2 64016  43.0009  84.0424 0001596 264.1137 164.4859 15.49681889  4316
STARLINK-34161          
1 64017U 25101Z   25163.84725146  .00058015  00000+0  10484-2 0  9998
2 64017  43.0041  82.9760 0009076 184.2058 175.8726 15.48840108  5712
STARLINK-34162          
1 64018U 25101AA  25163.52450376  .00064711  00000+0  10982-2 0  9997
2 64018  42.9995  84.8611 0000948 309.8175  50.2601 15.50619260  5724
STARLINK-34155          
1 64019U 25101AB  25163.13766908  .00060641  00000+0  10309-2 0  9997
2 64019  43.0006  87.1163 0001761 275.0071  85.0588 15.50594846  5666
STARLINK-34141          
1 64020U 25101AC  25163.78147270  .00063718  00000+0  10813-2 0  9993
2 64020  43.0009  83.3453 0001985 257.0792 102.9847 15.50625282  5766
STARLINK-34062          
1 64021U 25101AD  25163.91667824 -.01637838  00000+0 -31900-1 0  9993
2 64021  43.0007  82.5775 0001554 259.2557 128.4906 15.49884508  4571
STARLINK-34051          
1 64022U 25102A   25163.91667824 -.00012510  00000+0 -28269-3 0  9994
2 64022  70.0008  79.3133 0003299 267.7151 186.4643 15.42716020  4564
STARLINK-34184          
1 64023U 25102B   25163.91667824 -.00005533  00000+0 -12302-3 0  9993
2 64023  70.0008  79.2103 0003606 266.5526 277.6260 15.42715999  4568
STARLINK-34087          
1 64024U 25102C   25163.91667824 -.01493682  00000+0 -31476-1 0  9992
2 64024  69.9992  79.1202 0002964 272.8336 346.5341 15.47958118  4565
STARLINK-34088          
1 64025U 25102D   25163.80312753  .00081770  00000+0  13169-2 0  9997
2 64025  69.9986  79.4148 0003818 273.8982  86.1769 15.52545272  5424
STARLINK-33992          
1 64026U 25102E   25163.91667824 -.00002402  00000+0 -51510-4 0  9993
2 64026  70.0008  79.2606 0003281 271.6249 227.5881 15.42698206  4561
STARLINK-33967          
1 64027U 25102F   25163.91667824  .00005502  00000+0  12901-3 0  9996
2 64027  70.0004  79.1575 0003419 272.9289 316.2826 15.42694385  4562
STARLINK-33953          
1 64028U 25102G   25163.80216993  .00113593  00000+0  18225-2 0  9996
2 64028  70.0009  79.4159 0006336 254.1322 105.9167 15.52510106  5572
STARLINK-33790          
1 64029U 25102H   25163.80175523  .00068568  00000+0  11066-2 0  9997
2 64029  70.0012  79.4127 0004101 267.4938  92.5780 15.52543258  5464
STARLINK-34030          
1 64030U 25102J   25163.91667824 -.00000312  00000+0 -37251-5 0  9993
2 64030  70.0009  79.2340 0003454 268.6096 253.5855 15.42698318  4564
STARLINK-34024          
1 64031U 25102K   25163.91667824 -.00002543  00000+0 -54681-4 0  9997
2 64031  70.0007  79.1840 0003524 266.1103 300.0623 15.42714600  4561
STARLINK-34019          
1 64032U 25102L   25163.91667824 -.01499417  00000+0 -31509-1 0  9990
2 64032  69.9998  79.0950 0003109 270.0692  10.8042 15.48047325  4565
STARLINK-33860          
1 64033U 25102M   25163.91667824 -.01978815  00000+0 -47753-1 0  9993
2 64033  70.0000  79.1318 0003086 272.2916 337.7252 15.44412462  4567
STARLINK-33946          
1 64034U 25102N   25163.91667824 -.00004018  00000+0 -88432-4 0  9990
2 64034  70.0007  79.2872 0003491 277.0922 199.1035 15.42702825  4563
STARLINK-34046          
1 64035U 25102P   25163.91667824 -.01826593  00000+0 -17995-1 0  9995
2 64035  69.9957  77.2156 0003640 270.3687 164.5632 15.69085062  4563
STARLINK-34085          
1 64036U 25102Q   25163.86459687 -.00328670  00000+0 -62991-2 0  9995
2 64036  70.0001  79.2282 0002981 289.4618  70.6245 15.49028300  5480
STARLINK-34008          
1 64037U 25102R   25163.91667824  .00026184  00000+0  42722-3 0  9990
2 64037  70.0013  79.0789 0003331 270.4382  27.0877 15.52500141  4569
STARLINK-34079          
1 64038U 25102S   25162.83223678  .00082478  00000+0  13343-2 0  9990
2 64038  70.0022  82.0483 0004777 259.2599 100.8050 15.52412420  5369
STARLINK-34089          
1 64039U 25102T   25163.91667824 -.01556580  00000+0 -30147-1 0  9999
2 64039  70.0010  79.0773 0003503 263.2443  35.7352 15.50461552  4575
STARLINK-34117          
1 64040U 25102U   25163.91667824 -.00041651  00000+0 -67725-3 0  9992
2 64040  70.0012  79.0728 0003353 273.8429  29.4252 15.52542815  4576
